[
  {
    "Store": 100,
    "Address": "6611 Weymouth Rd",
    "City": "Mays Landing",
    "State": "NJ",
    "Zipcode": "08330",
    "Phone": "187-867-8356"
  },
  {
    "Store": 101,
    "Address": "6612 Landis Ave #UNIT WS",
    "City": "Sea Isle City",
    "State": "NJ",
    "Zipcode": "08243",
    "Phone": "885-138-6358"
  },
  {
    "Store": 102,
    "Address": "665 Yorktown Ct",
    "City": "Monroe Township",
    "State": "NJ",
    "Zipcode": "08831",
    "Phone": "850-745-1253"
  },
  {
    "Store": 103,
    "Address": "665-N Yorktown Ct",
    "City": "Monroe Township",
    "State": "NJ",
    "Zipcode": "08831",
    "Phone": "885-587-4048"
  },
  {
    "Store": 104,
    "Address": "6656 Black Horse Pike",
    "City": "Egg Harbor Township",
    "State": "NJ",
    "Zipcode": "08234",
    "Phone": "623-455-7192"
  },
  {
    "Store": 105,
    "Address": "667 Mansfield Vlg",
    "City": "Hackettstown",
    "State": "NJ",
    "Zipcode": "07840",
    "Phone": "160-168-2052"
  },
  {
    "Store": 106,
    "Address": "669 Princeton Ave",
    "City": "Brick",
    "State": "NJ",
    "Zipcode": "08724",
    "Phone": "198-389-1667"
  },
  {
    "Store": 107,
    "Address": "6694 Harding Hwy",
    "City": "Mays Landing",
    "State": "NJ",
    "Zipcode": "08330",
    "Phone": "973-358-4959"
  },
  {
    "Store": 108,
    "Address": "67 Archgate Rd",
    "City": "Basking Ridge",
    "State": "NJ",
    "Zipcode": "07920",
    "Phone": "548-533-0191"
  },
  {
    "Store": 109,
    "Address": "8000 River Rd #6B",
    "City": "North Bergen",
    "State": "NJ",
    "Zipcode": "07047",
    "Phone": "231-131-6731"
  },
  {
    "Store": 110,
    "Address": "52 Park Ave #B 4",
    "City": "Park Ridge",
    "State": "NJ",
    "Zipcode": "07656",
    "Phone": "190-756-7228"
  },
  {
    "Store": 111,
    "Address": "18 Whitman Pl",
    "City": "Hillsdale",
    "State": "NJ",
    "Zipcode": "07642",
    "Phone": "715-849-8354"
  },
  {
    "Store": 113,
    "Address": "101 Columbia Rd",
    "City": "Morristown",
    "State": "NJ",
    "Zipcode": "07960",
    "Phone": "862-236-5712"
  },
  {
    "Store": 114,
    "Address": "340 Kingsland St",
    "City": "Nutley",
    "State": "NJ",
    "Zipcode": "07110",
    "Phone": "167-377-8905"
  },
  {
    "Store": 115,
    "Address": "305 Enclave Ln",
    "City": "Bedminster",
    "State": "NJ",
    "Zipcode": "07921",
    "Phone": "851-725-7162"
  },
  {
    "Store": 116,
    "Address": "1313 Manchester St",
    "City": "Toms River",
    "State": "NJ",
    "Zipcode": "08757",
    "Phone": "745-115-6548"
  },
  {
    "Store": 117,
    "Address": "554 South Locust Dr",
    "City": "Somerville",
    "State": "NJ",
    "Zipcode": "08876",
    "Phone": "390-517-4118"
  },
  {
    "Store": 118,
    "Address": "37 Plumb Branch Ave",
    "City": "Trenton",
    "State": "NJ",
    "Zipcode": "08695",
    "Phone": "574-599-2661"
  },
  {
    "Store": 119,
    "Address": "7235 Moon Lane",
    "City": "Gillette",
    "State": "NJ",
    "Zipcode": "07933",
    "Phone": "254-660-1887"
  },
  {
    "Store": 120,
    "Address": "7906 Bow Ridge Lane",
    "City": "Chatsworth",
    "State": "NJ",
    "Zipcode": "08019",
    "Phone": "622-383-6861"
  },
  {
    "Store": 121,
    "Address": "911 E  Arnold Drive",
    "City": "Blawenburg",
    "State": "NJ",
    "Zipcode": "08504",
    "Phone": "215-906-2625"
  },
  {
    "Store": 122,
    "Address": "9151 N Manor Station Ave",
    "City": "New Milford",
    "State": "NJ",
    "Zipcode": "07646",
    "Phone": "300-732-3979"
  },
  {
    "Store": 123,
    "Address": "8451 La Sierra Lane",
    "City": "Sewaren",
    "State": "NJ",
    "Zipcode": "07077",
    "Phone": "486-956-0726"
  },
  {
    "Store": 124,
    "Address": "36 East Miles Street",
    "City": "Clifton",
    "State": "NJ",
    "Zipcode": "07014",
    "Phone": "151-775-2488"
  },
  {
    "Store": 125,
    "Address": "8419 Birchwood Rd",
    "City": "Avenel",
    "State": "NJ",
    "Zipcode": "07001",
    "Phone": "716-983-6174"
  },
  {
    "Store": 126,
    "Address": "704 E Lavender Street",
    "City": "Trenton",
    "State": "NJ",
    "Zipcode": "08641",
    "Phone": "566-402-2558"
  },
  {
    "Store": 127,
    "Address": "660 Blessing Ave",
    "City": "Monmouth Beach",
    "State": "NJ",
    "Zipcode": "07750",
    "Phone": "841-604-1800"
  },
  {
    "Store": 128,
    "Address": "800 Laurel Street",
    "City": "Augusta",
    "State": "NJ",
    "Zipcode": "07822",
    "Phone": "391-228-9272"
  },
  {
    "Store": 129,
    "Address": "66 Oak Valley Street",
    "City": "Lawnside",
    "State": "NJ",
    "Zipcode": "08045",
    "Phone": "616-272-9072"
  },
  {
    "Store": 130,
    "Address": "221 NE  Park St",
    "City": "Deerfield Street",
    "State": "NJ",
    "Zipcode": "08313",
    "Phone": "323-583-3783"
  },
  {
    "Store": 131,
    "Address": "727 Lower Ave",
    "City": "Cherry Hill",
    "State": "NJ",
    "Zipcode": "08003",
    "Phone": "353-220-8348"
  },
  {
    "Store": 132,
    "Address": "91 Rock Creek St",
    "City": "Atlantic Highlands",
    "State": "NJ",
    "Zipcode": "07716",
    "Phone": "108-104-9799"
  },
  {
    "Store": 133,
    "Address": "870 Globe Lane",
    "City": "Wharton",
    "State": "NJ",
    "Zipcode": "07885",
    "Phone": "901-539-7130"
  },
  {
    "Store": 134,
    "Address": "850 Cooper Ave",
    "City": "Green Creek",
    "State": "NJ",
    "Zipcode": "08219",
    "Phone": "412-221-7240"
  },
  {
    "Store": 135,
    "Address": "9272 North Rock Creek Dr",
    "City": "Fairton",
    "State": "NJ",
    "Zipcode": "08320",
    "Phone": "368-826-3782"
  },
  {
    "Store": 136,
    "Address": "84 William Dr",
    "City": "Somerset",
    "State": "NJ",
    "Zipcode": "08875",
    "Phone": "162-383-2397"
  },
  {
    "Store": 137,
    "Address": "354 Manchester Road",
    "City": "Mount Tabor",
    "State": "NJ",
    "Zipcode": "07878",
    "Phone": "466-681-1678"
  },
  {
    "Store": 138,
    "Address": "7537 Lincoln Drive",
    "City": "Haskell",
    "State": "NJ",
    "Zipcode": "07420",
    "Phone": "603-630-8135"
  },
  {
    "Store": 139,
    "Address": "88 George Rd",
    "City": "Ridgewood",
    "State": "NJ",
    "Zipcode": "07450",
    "Phone": "861-594-2838"
  },
  {
    "Store": 140,
    "Address": "692 4th Rd",
    "City": "Haworth",
    "State": "NJ",
    "Zipcode": "07641",
    "Phone": "446-444-5334"
  },
  {
    "Store": 141,
    "Address": "9737 East Lakeshore Dr",
    "City": "Manahawkin",
    "State": "NJ",
    "Zipcode": "08050",
    "Phone": "337-670-0332"
  },
  {
    "Store": 142,
    "Address": "36 Pacific Street",
    "City": "Red Bank",
    "State": "NJ",
    "Zipcode": "07701",
    "Phone": "657-152-2494"
  },
  {
    "Store": 143,
    "Address": "271 West Leatherwood Dr",
    "City": "Pompton Plains",
    "State": "NJ",
    "Zipcode": "07444",
    "Phone": "111-976-4165"
  },
  {
    "Store": 144,
    "Address": "819 Spring Lane",
    "City": "Trenton",
    "State": "NJ",
    "Zipcode": "08638",
    "Phone": "375-969-3999"
  },
  {
    "Store": 145,
    "Address": "706 Ashley Street",
    "City": "Florence",
    "State": "NJ",
    "Zipcode": "08518",
    "Phone": "305-640-3315"
  },
  {
    "Store": 146,
    "Address": "8849 Helen St",
    "City": "Garfield",
    "State": "NJ",
    "Zipcode": "07026",
    "Phone": "517-334-5906"
  },
  {
    "Store": 147,
    "Address": "952 Cliff Dr",
    "City": "Toms River",
    "State": "NJ",
    "Zipcode": "08757",
    "Phone": "179-410-8995"
  },
  {
    "Store": 148,
    "Address": "7004 East Mill Pond Street",
    "City": "Newfoundland",
    "State": "NJ",
    "Zipcode": "07435",
    "Phone": "617-506-1590"
  },
  {
    "Store": 149,
    "Address": "48 Rock Creek Ave",
    "City": "Trenton",
    "State": "NJ",
    "Zipcode": "08610",
    "Phone": "730-141-9663"
  },
  {
    "Store": 150,
    "Address": "19 Military Rd",
    "City": "Oceanville",
    "State": "NJ",
    "Zipcode": "08231",
    "Phone": "264-787-8304"
  },
  {
    "Store": 151,
    "Address": "49 E  Corona St",
    "City": "New Egypt",
    "State": "NJ",
    "Zipcode": "08533",
    "Phone": "479-451-4545"
  },
  {
    "Store": 152,
    "Address": "9068 Lantern St",
    "City": "Cedar Knolls",
    "State": "NJ",
    "Zipcode": "07927",
    "Phone": "932-455-7769"
  },
  {
    "Store": 153,
    "Address": "61 Pawnee Ave",
    "City": "Branchville",
    "State": "NJ",
    "Zipcode": "07826",
    "Phone": "162-263-4416"
  },
  {
    "Store": 154,
    "Address": "86 Laurel Dr",
    "City": "Leonia",
    "State": "NJ",
    "Zipcode": "07605",
    "Phone": "780-795-2603"
  },
  {
    "Store": 155,
    "Address": "24 Railway Rd",
    "City": "Mount Laurel",
    "State": "NJ",
    "Zipcode": "08054",
    "Phone": "975-930-4947"
  },
  {
    "Store": 156,
    "Address": "421 Prospect Street",
    "City": "Elizabeth",
    "State": "NJ",
    "Zipcode": "07202",
    "Phone": "150-358-0303"
  },
  {
    "Store": 157,
    "Address": "925 Sunbeam St",
    "City": "Burlington",
    "State": "NJ",
    "Zipcode": "08016",
    "Phone": "156-316-4283"
  },
  {
    "Store": 158,
    "Address": "416 Miles Avenue",
    "City": "Rosenhayn",
    "State": "NJ",
    "Zipcode": "08352",
    "Phone": "767-733-5943"
  },
  {
    "Store": 159,
    "Address": "5 Primrose Dr",
    "City": "Trenton",
    "State": "NJ",
    "Zipcode": "08606",
    "Phone": "939-932-2017"
  },
  {
    "Store": 160,
    "Address": "880 Valley Farms Dr",
    "City": "Lawnside",
    "State": "NJ",
    "Zipcode": "08045",
    "Phone": "826-260-8838"
  },
  {
    "Store": 161,
    "Address": "992 Lakeview Dr",
    "City": "Richwood",
    "State": "NJ",
    "Zipcode": "08074",
    "Phone": "102-668-1699"
  },
  {
    "Store": 162,
    "Address": "42 Galvin Street",
    "City": "Toms River",
    "State": "NJ",
    "Zipcode": "08755",
    "Phone": "145-902-2582"
  },
  {
    "Store": 163,
    "Address": "487 Talbot Rd",
    "City": "Atlantic Highlands",
    "State": "NJ",
    "Zipcode": "07716",
    "Phone": "140-255-3429"
  },
  {
    "Store": 164,
    "Address": "9 Brickyard St",
    "City": "Mantua",
    "State": "NJ",
    "Zipcode": "08051",
    "Phone": "458-561-3961"
  },
  {
    "Store": 165,
    "Address": "85 Heritage St",
    "City": "North Bergen",
    "State": "NJ",
    "Zipcode": "07047",
    "Phone": "485-157-6709"
  },
  {
    "Store": 166,
    "Address": "116 Logan St",
    "City": "Green Creek",
    "State": "NJ",
    "Zipcode": "08219",
    "Phone": "631-890-3207"
  },
  {
    "Store": 167,
    "Address": "80 Indian Summer Drive",
    "City": "Greendell",
    "State": "NJ",
    "Zipcode": "07839",
    "Phone": "701-501-2295"
  },
  {
    "Store": 168,
    "Address": "8943 Archer Ave",
    "City": "Atlantic City",
    "State": "NJ",
    "Zipcode": "08405",
    "Phone": "638-346-0197"
  },
  {
    "Store": 169,
    "Address": "9320 Clinton St",
    "City": "Maywood",
    "State": "NJ",
    "Zipcode": "07607",
    "Phone": "657-447-3134"
  },
  {
    "Store": 170,
    "Address": "93 Trinity Dr",
    "City": "East Rutherford",
    "State": "NJ",
    "Zipcode": "07073",
    "Phone": "434-124-0349"
  },
  {
    "Store": 171,
    "Address": "627 Manhattan Road",
    "City": "North Brunswick",
    "State": "NJ",
    "Zipcode": "08902",
    "Phone": "336-427-6310"
  },
  {
    "Store": 172,
    "Address": "957 Spring Circle",
    "City": "Swedesboro",
    "State": "NJ",
    "Zipcode": "08085",
    "Phone": "264-692-1690"
  },
  {
    "Store": 173,
    "Address": "735 Diamond Ave",
    "City": "Richland",
    "State": "NJ",
    "Zipcode": "08350",
    "Phone": "212-942-0340"
  },
  {
    "Store": 174,
    "Address": "680 South General Rd",
    "City": "West Milford",
    "State": "NJ",
    "Zipcode": "07480",
    "Phone": "698-531-3308"
  },
  {
    "Store": 175,
    "Address": "7 Dunbar Ave",
    "City": "Peapack",
    "State": "NJ",
    "Zipcode": "07977",
    "Phone": "850-830-0103"
  },
  {
    "Store": 176,
    "Address": "62 Young Drive",
    "City": "Franklinville",
    "State": "NJ",
    "Zipcode": "08322",
    "Phone": "473-750-5487"
  },
  {
    "Store": 177,
    "Address": "8403 Williams Road",
    "City": "Quinton",
    "State": "NJ",
    "Zipcode": "08072",
    "Phone": "859-134-3698"
  },
  {
    "Store": 178,
    "Address": "9321 Victoria Dr",
    "City": "Ridgewood",
    "State": "NJ",
    "Zipcode": "07450",
    "Phone": "612-809-5761"
  },
  {
    "Store": 179,
    "Address": "961 Innovation Ave",
    "City": "Toms River",
    "State": "NJ",
    "Zipcode": "08754",
    "Phone": "657-476-2259"
  },
  {
    "Store": 180,
    "Address": "30 Peninsula Street",
    "City": "Norma",
    "State": "NJ",
    "Zipcode": "08347",
    "Phone": "801-545-3557"
  },
  {
    "Store": 181,
    "Address": "7289 Coastline Street",
    "City": "Paterson",
    "State": "NJ",
    "Zipcode": "07522",
    "Phone": "125-556-1599"
  },
  {
    "Store": 182,
    "Address": "88 Shub Farm Ave",
    "City": "Whippany",
    "State": "NJ",
    "Zipcode": "07983",
    "Phone": "544-785-4841"
  },
  {
    "Store": 183,
    "Address": "3 Brook Road",
    "City": "Raritan",
    "State": "NJ",
    "Zipcode": "08869",
    "Phone": "864-975-4275"
  },
  {
    "Store": 184,
    "Address": "257 Shade Dr",
    "City": "Trenton",
    "State": "NJ",
    "Zipcode": "08604",
    "Phone": "134-949-3557"
  },
  {
    "Store": 185,
    "Address": "71 Silver Spear Ave",
    "City": "New Brunswick",
    "State": "NJ",
    "Zipcode": "08901",
    "Phone": "368-204-9105"
  },
  {
    "Store": 186,
    "Address": "43 Dunbar Drive",
    "City": "Normandy Beach",
    "State": "NJ",
    "Zipcode": "08739",
    "Phone": "561-206-3394"
  },
  {
    "Store": 187,
    "Address": "272 South Coffee Dr",
    "City": "Closter",
    "State": "NJ",
    "Zipcode": "07624",
    "Phone": "191-102-8429"
  },
  {
    "Store": 188,
    "Address": "9237 Valley View St",
    "City": "Florham Park",
    "State": "NJ",
    "Zipcode": "07932",
    "Phone": "939-501-7716"
  },
  {
    "Store": 189,
    "Address": "8731 Wagon Ave",
    "City": "Medford",
    "State": "NJ",
    "Zipcode": "08055",
    "Phone": "563-326-8776"
  },
  {
    "Store": 190,
    "Address": "8283 Circus Street",
    "City": "Somerdale",
    "State": "NJ",
    "Zipcode": "08083",
    "Phone": "801-100-2632"
  },
  {
    "Store": 191,
    "Address": "7463 Rosemary Rd",
    "City": "Kenilworth",
    "State": "NJ",
    "Zipcode": "07033",
    "Phone": "671-510-2569"
  },
  {
    "Store": 192,
    "Address": "7386 Gonzales St",
    "City": "Allentown",
    "State": "NJ",
    "Zipcode": "08501",
    "Phone": "798-703-4240"
  },
  {
    "Store": 193,
    "Address": "965 N",
    "City": "Mill Pond Lane Longport",
    "State": "NJ",
    "Zipcode": "08403",
    "Phone": "190-916-7138"
  },
  {
    "Store": 194,
    "Address": "271 Primrose Ave",
    "City": "South Dennis",
    "State": "NJ",
    "Zipcode": "08245",
    "Phone": "441-693-7370"
  },
  {
    "Store": 195,
    "Address": "49 Lyme Street",
    "City": "Leonia",
    "State": "NJ",
    "Zipcode": "07605",
    "Phone": "678-278-1447"
  },
  {
    "Store": 196,
    "Address": "32 Manhattan Drive",
    "City": "Mahwah",
    "State": "NJ",
    "Zipcode": "07430",
    "Phone": "729-832-6732"
  },
  {
    "Store": 197,
    "Address": "5 Luna Road",
    "City": "Runnemede",
    "State": "NJ",
    "Zipcode": "08078",
    "Phone": "930-742-6535"
  },
  {
    "Store": 198,
    "Address": "9112 National Road",
    "City": "Gibbsboro",
    "State": "NJ",
    "Zipcode": "08026",
    "Phone": "590-460-3365"
  },
  {
    "Store": 199,
    "Address": "15 4th Ave",
    "City": "National Park",
    "State": "NJ",
    "Zipcode": "08063",
    "Phone": "356-955-9617"
  },
  {
    "Store": 200,
    "Address": "789 Lakewood Ave",
    "City": "Rancocas",
    "State": "NJ",
    "Zipcode": "08073",
    "Phone": "645-589-6674"
  },
  {
    "Store": 201,
    "Address": "9969 Apostle Street",
    "City": "Whitehouse Station",
    "State": "NJ",
    "Zipcode": "08889",
    "Phone": "547-800-7046"
  },
  {
    "Store": 202,
    "Address": "7 Bellevue Street New",
    "City": "Lisbon",
    "State": "NJ",
    "Zipcode": "08064",
    "Phone": "710-461-2723"
  },
  {
    "Store": 203,
    "Address": "9851 Redwood Ave",
    "City": "Tuckahoe",
    "State": "NJ",
    "Zipcode": "08250",
    "Phone": "659-608-3748"
  },
  {
    "Store": 204,
    "Address": "9 Champion Street",
    "City": "Spring Lake",
    "State": "NJ",
    "Zipcode": "07762",
    "Phone": "790-458-2697"
  },
  {
    "Store": 205,
    "Address": "3 Pacific Court",
    "City": "Toms River",
    "State": "NJ",
    "Zipcode": "08756",
    "Phone": "933-691-4798"
  },
  {
    "Store": 206,
    "Address": "9043 Evergreen Street",
    "City": "Morristown",
    "State": "NJ",
    "Zipcode": "07960",
    "Phone": "625-319-6004"
  },
  {
    "Store": 207,
    "Address": "894 West Buttonwood Ave",
    "City": "Rahway",
    "State": "NJ",
    "Zipcode": "07065",
    "Phone": "491-834-4595"
  },
  {
    "Store": 208,
    "Address": "871 Garnet Ave",
    "City": "Wickatunk",
    "State": "NJ",
    "Zipcode": "07765",
    "Phone": "547-704-1386"
  },
  {
    "Store": 209,
    "Address": "448 Beaver Ridge Ave",
    "City": "Milford",
    "State": "NJ",
    "Zipcode": "08848",
    "Phone": "194-106-9752"
  },
  {
    "Store": 210,
    "Address": "7915 Wrangler St",
    "City": "Parsippany",
    "State": "NJ",
    "Zipcode": "07054",
    "Phone": "550-702-7014"
  },
  {
    "Store": 211,
    "Address": "780 Colonel St",
    "City": "Lebanon",
    "State": "NJ",
    "Zipcode": "08833",
    "Phone": "463-515-1332"
  },
  {
    "Store": 212,
    "Address": "447 Phoenix Ave",
    "City": "Belvidere",
    "State": "NJ",
    "Zipcode": "07823",
    "Phone": "346-596-5010"
  },
  {
    "Store": 213,
    "Address": "55 Garden Ave",
    "City": "Newport",
    "State": "NJ",
    "Zipcode": "08345",
    "Phone": "993-202-2236"
  },
  {
    "Store": 214,
    "Address": "576 Miles St",
    "City": "Carlstadt",
    "State": "NJ",
    "Zipcode": "07072",
    "Phone": "142-747-8032"
  },
  {
    "Store": 215,
    "Address": "49 Pilgrim Drive",
    "City": "Moorestown",
    "State": "NJ",
    "Zipcode": "08057",
    "Phone": "128-771-5855"
  },
  {
    "Store": 216,
    "Address": "89 Clark St",
    "City": "Westville",
    "State": "NJ",
    "Zipcode": "08093",
    "Phone": "950-788-2613"
  },
  {
    "Store": 217,
    "Address": "69 Fortune Avenue",
    "City": "Hewitt",
    "State": "NJ",
    "Zipcode": "07421",
    "Phone": "785-636-2366"
  },
  {
    "Store": 218,
    "Address": "837 Sapphire St",
    "City": "Pittstown",
    "State": "NJ",
    "Zipcode": "08867",
    "Phone": "180-691-7607"
  },
  {
    "Store": 219,
    "Address": "34 Brown St",
    "City": "Montague",
    "State": "NJ",
    "Zipcode": "07827",
    "Phone": "604-730-2978"
  },
  {
    "Store": 220,
    "Address": "9733 S  Rosemary Street",
    "City": "Spotswood",
    "State": "NJ",
    "Zipcode": "08884",
    "Phone": "923-160-6152"
  },
  {
    "Store": 221,
    "Address": "837 Crescent Ave",
    "City": "Millington",
    "State": "NJ",
    "Zipcode": "07946",
    "Phone": "614-595-0966"
  },
  {
    "Store": 222,
    "Address": "8657 Rockville St",
    "City": "Ramsey",
    "State": "NJ",
    "Zipcode": "07446",
    "Phone": "153-488-2025"
  },
  {
    "Store": 223,
    "Address": "7409 Mechanic St",
    "City": "Clifton",
    "State": "NJ",
    "Zipcode": "07011",
    "Phone": "532-895-1402"
  },
  {
    "Store": 224,
    "Address": "45 Wintergreen Ave",
    "City": "Newton",
    "State": "NJ",
    "Zipcode": "07860",
    "Phone": "664-507-2974"
  },
  {
    "Store": 225,
    "Address": "999 Station Lane",
    "City": "Netcong",
    "State": "NJ",
    "Zipcode": "07857",
    "Phone": "711-474-2970"
  },
  {
    "Store": 226,
    "Address": "9193 Fairview Rd",
    "City": "Trenton",
    "State": "NJ",
    "Zipcode": "08666",
    "Phone": "808-358-1398"
  },
  {
    "Store": 227,
    "Address": "60 Brookside Street",
    "City": "Avalon",
    "State": "NJ",
    "Zipcode": "08202",
    "Phone": "163-232-9096"
  },
  {
    "Store": 228,
    "Address": "89 N  Bridle Dr",
    "City": "Tuckahoe",
    "State": "NJ",
    "Zipcode": "08250",
    "Phone": "561-179-4765"
  },
  {
    "Store": 229,
    "Address": "7 South Livingston St",
    "City": "Wayne",
    "State": "NJ",
    "Zipcode": "07474",
    "Phone": "425-861-7892"
  },
  {
    "Store": 230,
    "Address": "917 West Winding Way Street",
    "City": "Little Falls",
    "State": "NJ",
    "Zipcode": "07424",
    "Phone": "921-810-9480"
  },
  {
    "Store": 231,
    "Address": "911 East Mechanic Drive",
    "City": "Mendham",
    "State": "NJ",
    "Zipcode": "07945",
    "Phone": "997-541-8412"
  },
  {
    "Store": 232,
    "Address": "154 Pineknoll Circle",
    "City": "Neptune",
    "State": "NJ",
    "Zipcode": "07753",
    "Phone": "500-726-3039"
  },
  {
    "Store": 233,
    "Address": "9030 Lily Rd",
    "City": "Elizabeth",
    "State": "NJ",
    "Zipcode": "07207",
    "Phone": "725-946-4432"
  },
  {
    "Store": 234,
    "Address": "103 Marlborough Street",
    "City": "Clifton",
    "State": "NJ",
    "Zipcode": "07013",
    "Phone": "808-105-4272"
  },
  {
    "Store": 235,
    "Address": "476 Sugar Dr",
    "City": "Mc Afee",
    "State": "NJ",
    "Zipcode": "07428",
    "Phone": "264-146-4378"
  },
  {
    "Store": 236,
    "Address": "31 Hall Ave",
    "City": "Montague",
    "State": "NJ",
    "Zipcode": "07827",
    "Phone": "804-792-3054"
  },
  {
    "Store": 237,
    "Address": "1 Prospect St",
    "City": "Ocean Gate",
    "State": "NJ",
    "Zipcode": "08740",
    "Phone": "783-404-1305"
  },
  {
    "Store": 238,
    "Address": "9755 Windsor St",
    "City": "Trenton",
    "State": "NJ",
    "Zipcode": "08608",
    "Phone": "343-716-2411"
  },
  {
    "Store": 239,
    "Address": "402 Delta Street",
    "City": "Essex Fells",
    "State": "NJ",
    "Zipcode": "07021",
    "Phone": "286-935-3816"
  },
  {
    "Store": 240,
    "Address": "86 Front St",
    "City": "West Long Branch",
    "State": "NJ",
    "Zipcode": "07764",
    "Phone": "665-552-1221"
  },
  {
    "Store": 241,
    "Address": "744 East Wall Street",
    "City": "Middlesex",
    "State": "NJ",
    "Zipcode": "08846",
    "Phone": "462-177-3257"
  },
  {
    "Store": 242,
    "Address": "9 Rose Lane",
    "City": "Trenton",
    "State": "NJ",
    "Zipcode": "08619",
    "Phone": "687-547-0788"
  },
  {
    "Store": 243,
    "Address": "99 Lilac St",
    "City": "Green Creek",
    "State": "NJ",
    "Zipcode": "08219",
    "Phone": "579-486-0654"
  },
  {
    "Store": 244,
    "Address": "7117 S  Lake Dr",
    "City": "Gladstone",
    "State": "NJ",
    "Zipcode": "07934",
    "Phone": "586-791-0945"
  },
  {
    "Store": 245,
    "Address": "380 Penrose Road",
    "City": "Cliffwood",
    "State": "NJ",
    "Zipcode": "07721",
    "Phone": "850-595-0963"
  },
  {
    "Store": 246,
    "Address": "7487 E Pin Oak Lane",
    "City": "Paterson",
    "State": "NJ",
    "Zipcode": "07514",
    "Phone": "908-759-4604"
  },
  {
    "Store": 247,
    "Address": "418 Royalty Drive",
    "City": "Jersey City",
    "State": "NJ",
    "Zipcode": "07097",
    "Phone": "248-823-3707"
  },
  {
    "Store": 248,
    "Address": "49 Ann St",
    "City": "Clarksboro",
    "State": "NJ",
    "Zipcode": "08020",
    "Phone": "344-242-2996"
  },
  {
    "Store": 249,
    "Address": "14 Aviation Rd",
    "City": "Ridgewood",
    "State": "NJ",
    "Zipcode": "07451",
    "Phone": "762-301-8642"
  },
  {
    "Store": 250,
    "Address": "232 Addison Rd",
    "City": "Barnegat",
    "State": "NJ",
    "Zipcode": "08005",
    "Phone": "216-469-3346"
  },
  {
    "Store": 251,
    "Address": "329 Summerhouse Street",
    "City": "Whippany",
    "State": "NJ",
    "Zipcode": "07999",
    "Phone": "160-777-7721"
  },
  {
    "Store": 252,
    "Address": "8 East Thorne Street",
    "City": "Delmont",
    "State": "NJ",
    "Zipcode": "08314",
    "Phone": "325-243-8929"
  },
  {
    "Store": 253,
    "Address": "903 Lake View Lane",
    "City": "Kenilworth",
    "State": "NJ",
    "Zipcode": "07033",
    "Phone": "714-790-3875"
  },
  {
    "Store": 254,
    "Address": "9759 W Starfall Lane",
    "City": "New Providence",
    "State": "NJ",
    "Zipcode": "07974",
    "Phone": "556-802-4262"
  },
  {
    "Store": 255,
    "Address": "94 Devon Rd",
    "City": "South River",
    "State": "NJ",
    "Zipcode": "08882",
    "Phone": "799-921-1396"
  },
  {
    "Store": 256,
    "Address": "11 East Upper Ave",
    "City": "Rockaway",
    "State": "NJ",
    "Zipcode": "07866",
    "Phone": "862-349-1714"
  },
  {
    "Store": 257,
    "Address": "8004 West Longbranch Drive",
    "City": "Elizabeth",
    "State": "NJ",
    "Zipcode": "07208",
    "Phone": "502-871-3781"
  },
  {
    "Store": 258,
    "Address": "7089 Old Bay Meadows St",
    "City": "East Orange",
    "State": "NJ",
    "Zipcode": "07017",
    "Phone": "727-893-9332"
  },
  {
    "Store": 259,
    "Address": "76 Briarwood St",
    "City": "Montville",
    "State": "NJ",
    "Zipcode": "07045",
    "Phone": "643-218-7410"
  },
  {
    "Store": 260,
    "Address": "6 Nightingale St",
    "City": "Allamuchy",
    "State": "NJ",
    "Zipcode": "07820",
    "Phone": "663-800-9019"
  },
  {
    "Store": 261,
    "Address": "7 Bury St",
    "City": "Brookside",
    "State": "NJ",
    "Zipcode": "07926",
    "Phone": "537-200-9160"
  },
  {
    "Store": 262,
    "Address": "8828 E  Bard Dr",
    "City": "Fair Lawn",
    "State": "NJ",
    "Zipcode": "07410",
    "Phone": "189-694-0885"
  },
  {
    "Store": 263,
    "Address": "78 S",
    "City": "Sycamore Drive Riverton",
    "State": "NJ",
    "Zipcode": "08077",
    "Phone": "353-871-0863"
  },
  {
    "Store": 264,
    "Address": "7227 Heirloom Dr",
    "City": "Green Village",
    "State": "NJ",
    "Zipcode": "07935",
    "Phone": "812-709-5599"
  },
  {
    "Store": 265,
    "Address": "539 Proctor Lane",
    "City": "Red Bank",
    "State": "NJ",
    "Zipcode": "07701",
    "Phone": "635-763-6179"
  },
  {
    "Store": 266,
    "Address": "31 S  Joy Ridge St",
    "City": "Somers Point",
    "State": "NJ",
    "Zipcode": "08244",
    "Phone": "252-661-7708"
  },
  {
    "Store": 267,
    "Address": "315 Lees Creek Lane",
    "City": "Newark",
    "State": "NJ",
    "Zipcode": "07191",
    "Phone": "233-504-0116"
  },
  {
    "Store": 268,
    "Address": "12 Cathedral Road",
    "City": "Jersey City",
    "State": "NJ",
    "Zipcode": "07309",
    "Phone": "241-337-7027"
  },
  {
    "Store": 269,
    "Address": "7 Brickyard Drive",
    "City": "Colonia",
    "State": "NJ",
    "Zipcode": "07067",
    "Phone": "132-333-7607"
  },
  {
    "Store": 270,
    "Address": "977 Second St",
    "City": "Montague",
    "State": "NJ",
    "Zipcode": "07827",
    "Phone": "758-399-7437"
  },
  {
    "Store": 271,
    "Address": "20 Oceanview Drive",
    "City": "Fanwood",
    "State": "NJ",
    "Zipcode": "07023",
    "Phone": "199-214-3645"
  },
  {
    "Store": 272,
    "Address": "310 West Smith Ave",
    "City": "Tenafly",
    "State": "NJ",
    "Zipcode": "07670",
    "Phone": "453-532-7219"
  },
  {
    "Store": 273,
    "Address": "7048 Low Ave",
    "City": "South Orange",
    "State": "NJ",
    "Zipcode": "07079",
    "Phone": "455-111-6819"
  },
  {
    "Store": 274,
    "Address": "677 Yew St",
    "City": "Belmar",
    "State": "NJ",
    "Zipcode": "07719",
    "Phone": "628-149-2060"
  },
  {
    "Store": 275,
    "Address": "9744 Tunnel Street",
    "City": "Riverton",
    "State": "NJ",
    "Zipcode": "08076",
    "Phone": "471-660-0067"
  },
  {
    "Store": 276,
    "Address": "48 Brewer St",
    "City": "Monmouth Junction",
    "State": "NJ",
    "Zipcode": "08852",
    "Phone": "670-802-4878"
  },
  {
    "Store": 277,
    "Address": "7961 Dogwood Street",
    "City": "Rancocas",
    "State": "NJ",
    "Zipcode": "08073",
    "Phone": "261-898-7518"
  },
  {
    "Store": 278,
    "Address": "673 Cooper St",
    "City": "Hancocks Bridge",
    "State": "NJ",
    "Zipcode": "08038",
    "Phone": "434-305-4586"
  },
  {
    "Store": 279,
    "Address": "8259 Bridle Street",
    "City": "Lyndhurst",
    "State": "NJ",
    "Zipcode": "07071",
    "Phone": "490-206-5884"
  },
  {
    "Store": 280,
    "Address": "7213 West Tarkiln Hill Court",
    "City": "Dover",
    "State": "NJ",
    "Zipcode": "07801",
    "Phone": "616-726-3353"
  },
  {
    "Store": 281,
    "Address": "7798 Justice Lane",
    "City": "Toms River",
    "State": "NJ",
    "Zipcode": "08755",
    "Phone": "917-163-0011"
  },
  {
    "Store": 282,
    "Address": "19 Gravel St",
    "City": "Monroe Township",
    "State": "NJ",
    "Zipcode": "08831",
    "Phone": "294-642-7576"
  },
  {
    "Store": 283,
    "Address": "16 Big Rock Cove Avenue",
    "City": "Port Republic",
    "State": "NJ",
    "Zipcode": "08241",
    "Phone": "618-816-3522"
  },
  {
    "Store": 284,
    "Address": "9945 Manor Ave",
    "City": "Cape May Point",
    "State": "NJ",
    "Zipcode": "08212",
    "Phone": "690-621-2542"
  },
  {
    "Store": 285,
    "Address": "63 N",
    "City": "Granite Circle Ventnor City",
    "State": "NJ",
    "Zipcode": "08406",
    "Phone": "407-998-3474"
  },
  {
    "Store": 286,
    "Address": "57 Eagle St",
    "City": "Trenton",
    "State": "NJ",
    "Zipcode": "08647",
    "Phone": "663-759-3568"
  },
  {
    "Store": 287,
    "Address": "8849 Timber Ave",
    "City": "Pennsville",
    "State": "NJ",
    "Zipcode": "08070",
    "Phone": "638-714-4052"
  },
  {
    "Store": 288,
    "Address": "16 Logan St",
    "City": "Jersey City",
    "State": "NJ",
    "Zipcode": "07304",
    "Phone": "971-582-4806"
  },
  {
    "Store": 289,
    "Address": "14 Sleepy Hollow Drive",
    "City": "Heislerville",
    "State": "NJ",
    "Zipcode": "08324",
    "Phone": "230-958-8064"
  },
  {
    "Store": 290,
    "Address": "640 Hickory Ave",
    "City": "Ironia",
    "State": "NJ",
    "Zipcode": "07845",
    "Phone": "524-994-1776"
  },
  {
    "Store": 291,
    "Address": "8509 South Gravel St",
    "City": "Hewitt",
    "State": "NJ",
    "Zipcode": "07421",
    "Phone": "480-208-0379"
  },
  {
    "Store": 292,
    "Address": "678 N",
    "City": "Eagle Court Secaucus",
    "State": "NJ",
    "Zipcode": "07094",
    "Phone": "835-407-4944"
  },
  {
    "Store": 293,
    "Address": "62 Gonzales Ave",
    "City": "Matawan",
    "State": "NJ",
    "Zipcode": "07747",
    "Phone": "250-681-9485"
  },
  {
    "Store": 294,
    "Address": "7106 Vista Ave",
    "City": "Fairview",
    "State": "NJ",
    "Zipcode": "07022",
    "Phone": "313-603-5719"
  },
  {
    "Store": 295,
    "Address": "888 Lyme Drive",
    "City": "Riverside",
    "State": "NJ",
    "Zipcode": "08075",
    "Phone": "411-383-9493"
  },
  {
    "Store": 296,
    "Address": "713 Cannon Street",
    "City": "Egg Harbor City",
    "State": "NJ",
    "Zipcode": "08215",
    "Phone": "662-920-9747"
  },
  {
    "Store": 297,
    "Address": "8164 Brandywine Ave",
    "City": "Moorestown",
    "State": "NJ",
    "Zipcode": "08057",
    "Phone": "124-554-6129"
  },
  {
    "Store": 298,
    "Address": "650 South Arcadia St",
    "City": "Moonachie",
    "State": "NJ",
    "Zipcode": "07074",
    "Phone": "239-211-9048"
  },
  {
    "Store": 299,
    "Address": "542 Upper Ave",
    "City": "North Brunswick",
    "State": "NJ",
    "Zipcode": "08902",
    "Phone": "620-600-6429"
  },
  {
    "Store": 300,
    "Address": "9223 Lexington Ave",
    "City": "Sea Isle City",
    "State": "NJ",
    "Zipcode": "08243",
    "Phone": "519-295-4966"
  },
  {
    "Store": 301,
    "Address": "5 West Fox Drive",
    "City": "Newark",
    "State": "NJ",
    "Zipcode": "07195",
    "Phone": "596-113-6923"
  },
  {
    "Store": 302,
    "Address": "888 Beech Avenue",
    "City": "Somerset",
    "State": "NJ",
    "Zipcode": "08875",
    "Phone": "137-744-9697"
  },
  {
    "Store": 303,
    "Address": "907 Sunshine Rd",
    "City": "Sicklerville",
    "State": "NJ",
    "Zipcode": "08081",
    "Phone": "330-874-9461"
  },
  {
    "Store": 304,
    "Address": "95 S  Logan Drive",
    "City": "Sparta",
    "State": "NJ",
    "Zipcode": "07871",
    "Phone": "723-326-9886"
  },
  {
    "Store": 305,
    "Address": "8858 Lawn Avenue",
    "City": "Jersey City",
    "State": "NJ",
    "Zipcode": "07302",
    "Phone": "290-484-6019"
  },
  {
    "Store": 306,
    "Address": "729 Railroad St",
    "City": "Gladstone",
    "State": "NJ",
    "Zipcode": "07934",
    "Phone": "837-750-3124"
  },
  {
    "Store": 307,
    "Address": "8683 Rosemary Street",
    "City": "Egg Harbor City",
    "State": "NJ",
    "Zipcode": "08215",
    "Phone": "742-459-8689"
  },
  {
    "Store": 308,
    "Address": "9237 Madison St",
    "City": "Saddle River",
    "State": "NJ",
    "Zipcode": "07458",
    "Phone": "506-143-1650"
  },
  {
    "Store": 309,
    "Address": "8820 North Main Drive",
    "City": "Jersey City",
    "State": "NJ",
    "Zipcode": "07395",
    "Phone": "503-301-4217"
  },
  {
    "Store": 310,
    "Address": "90 E Fountain Dr",
    "City": "Middlesex",
    "State": "NJ",
    "Zipcode": "08846",
    "Phone": "181-475-7539"
  },
  {
    "Store": 311,
    "Address": "7878 Gonzales Ave",
    "City": "Ironia",
    "State": "NJ",
    "Zipcode": "07845",
    "Phone": "246-125-9107"
  },
  {
    "Store": 312,
    "Address": "73 Indian Summer Ave",
    "City": "Princeton",
    "State": "NJ",
    "Zipcode": "08540",
    "Phone": "941-336-4914"
  },
  {
    "Store": 313,
    "Address": "9108 Meadow Road",
    "City": "Green Village",
    "State": "NJ",
    "Zipcode": "07935",
    "Phone": "644-289-3044"
  },
  {
    "Store": 314,
    "Address": "56 Lees Creek St",
    "City": "Clifton",
    "State": "NJ",
    "Zipcode": "07014",
    "Phone": "766-744-7525"
  },
  {
    "Store": 315,
    "Address": "9215 Woodland Street",
    "City": "Andover",
    "State": "NJ",
    "Zipcode": "07821",
    "Phone": "844-355-7651"
  },
  {
    "Store": 316,
    "Address": "436 Grime Ave",
    "City": "Maywood",
    "State": "NJ",
    "Zipcode": "07607",
    "Phone": "114-587-7523"
  },
  {
    "Store": 317,
    "Address": "17 Kings Road",
    "City": "Somerset",
    "State": "NJ",
    "Zipcode": "08875",
    "Phone": "307-132-3179"
  },
  {
    "Store": 318,
    "Address": "2 E  Ann Dr",
    "City": "Mahwah",
    "State": "NJ",
    "Zipcode": "07430",
    "Phone": "807-540-6861"
  },
  {
    "Store": 319,
    "Address": "9622 Clearance St",
    "City": "Franklin",
    "State": "NJ",
    "Zipcode": "07416",
    "Phone": "608-511-5453"
  },
  {
    "Store": 320,
    "Address": "8199 Vermilion Street",
    "City": "Bayonne",
    "State": "NJ",
    "Zipcode": "07002",
    "Phone": "908-168-1000"
  },
  {
    "Store": 321,
    "Address": "7918 Hart Ave",
    "City": "Jobstown",
    "State": "NJ",
    "Zipcode": "08041",
    "Phone": "626-626-3014"
  },
  {
    "Store": 322,
    "Address": "970 East Arrowhead Ave",
    "City": "Rochelle Park",
    "State": "NJ",
    "Zipcode": "07662",
    "Phone": "888-730-3519"
  },
  {
    "Store": 323,
    "Address": "19 East Paris Hill Dr",
    "City": "Millville",
    "State": "NJ",
    "Zipcode": "08332",
    "Phone": "748-263-1835"
  },
  {
    "Store": 324,
    "Address": "7474 Marsh St",
    "City": "Millburn",
    "State": "NJ",
    "Zipcode": "07041",
    "Phone": "462-215-5288"
  },
  {
    "Store": 325,
    "Address": "8217 Birchwood Street",
    "City": "Millstone Township",
    "State": "NJ",
    "Zipcode": "08510",
    "Phone": "870-948-1343"
  },
  {
    "Store": 326,
    "Address": "624 La Sierra St",
    "City": "Pompton Plains",
    "State": "NJ",
    "Zipcode": "07444",
    "Phone": "745-734-6820"
  },
  {
    "Store": 327,
    "Address": "251 Glendale Rd",
    "City": "Maplewood",
    "State": "NJ",
    "Zipcode": "07040",
    "Phone": "196-491-9123"
  },
  {
    "Store": 328,
    "Address": "8245 Schoolhouse Dr",
    "City": "Paramus",
    "State": "NJ",
    "Zipcode": "07653",
    "Phone": "639-293-1403"
  },
  {
    "Store": 329,
    "Address": "44 Briarwood Ave",
    "City": "Trenton",
    "State": "NJ",
    "Zipcode": "08641",
    "Phone": "577-147-9803"
  },
  {
    "Store": 330,
    "Address": "8 N  Sugarplum Rd",
    "City": "Haledon",
    "State": "NJ",
    "Zipcode": "07508",
    "Phone": "621-618-6674"
  },
  {
    "Store": 331,
    "Address": "7803 Richardson Drive",
    "City": "Jobstown",
    "State": "NJ",
    "Zipcode": "08041",
    "Phone": "802-381-2021"
  },
  {
    "Store": 332,
    "Address": "2 Bayberry Lane",
    "City": "Manchester Township",
    "State": "NJ",
    "Zipcode": "08759",
    "Phone": "913-663-8162"
  },
  {
    "Store": 333,
    "Address": "475 Old Military Ave",
    "City": "Toms River",
    "State": "NJ",
    "Zipcode": "08756",
    "Phone": "619-753-0396"
  },
  {
    "Store": 334,
    "Address": "431 Ohio Ave",
    "City": "Lawnside",
    "State": "NJ",
    "Zipcode": "08045",
    "Phone": "267-259-9297"
  },
  {
    "Store": 335,
    "Address": "134 Gem Drive",
    "City": "Pequannock",
    "State": "NJ",
    "Zipcode": "07440",
    "Phone": "921-808-8502"
  },
  {
    "Store": 336,
    "Address": "6 Devonshire Drive",
    "City": "Lebanon",
    "State": "NJ",
    "Zipcode": "08833",
    "Phone": "951-899-5503"
  },
  {
    "Store": 337,
    "Address": "33 Lyme St",
    "City": "Greenwich",
    "State": "NJ",
    "Zipcode": "08323",
    "Phone": "646-772-2609"
  },
  {
    "Store": 338,
    "Address": "390 Rosewood Drive",
    "City": "Newark",
    "State": "NJ",
    "Zipcode": "07101",
    "Phone": "459-833-3992"
  },
  {
    "Store": 339,
    "Address": "693 Vista Ave",
    "City": "Sussex",
    "State": "NJ",
    "Zipcode": "07461",
    "Phone": "703-503-4562"
  },
  {
    "Store": 340,
    "Address": "604 Wentworth St",
    "City": "Dunellen",
    "State": "NJ",
    "Zipcode": "08812",
    "Phone": "835-234-4600"
  },
  {
    "Store": 341,
    "Address": "31 Dawn St",
    "City": "Mc Afee",
    "State": "NJ",
    "Zipcode": "07428",
    "Phone": "832-862-4494"
  },
  {
    "Store": 342,
    "Address": "4 Creekside Lane",
    "City": "Glassboro",
    "State": "NJ",
    "Zipcode": "08028",
    "Phone": "854-868-7986"
  },
  {
    "Store": 343,
    "Address": "7277 Taylor Road",
    "City": "Newark",
    "State": "NJ",
    "Zipcode": "07175",
    "Phone": "495-116-2872"
  },
  {
    "Store": 344,
    "Address": "7010 N",
    "City": "Boulder Road Brigantine",
    "State": "NJ",
    "Zipcode": "08203",
    "Phone": "318-119-5653"
  },
  {
    "Store": 345,
    "Address": "78 Fairfield St",
    "City": "Pennington",
    "State": "NJ",
    "Zipcode": "08534",
    "Phone": "736-629-3317"
  },
  {
    "Store": 346,
    "Address": "71 Sage St",
    "City": "Glen Ridge",
    "State": "NJ",
    "Zipcode": "07028",
    "Phone": "437-773-7375"
  },
  {
    "Store": 347,
    "Address": "852 Jennings Street South",
    "City": "Hackensack",
    "State": "NJ",
    "Zipcode": "07606",
    "Phone": "272-576-7064"
  },
  {
    "Store": 348,
    "Address": "481 Mountainview Ave",
    "City": "Kearny",
    "State": "NJ",
    "Zipcode": "07099",
    "Phone": "909-783-8432"
  },
  {
    "Store": 349,
    "Address": "738 Church St",
    "City": "Richland",
    "State": "NJ",
    "Zipcode": "08350",
    "Phone": "606-330-6422"
  },
  {
    "Store": 350,
    "Address": "26 Heritage Dr",
    "City": "Newark",
    "State": "NJ",
    "Zipcode": "07108",
    "Phone": "564-333-5165"
  },
  {
    "Store": 351,
    "Address": "35 Warren Lane",
    "City": "Trenton",
    "State": "NJ",
    "Zipcode": "08609",
    "Phone": "661-824-0543"
  },
  {
    "Store": 352,
    "Address": "616 Bright Avenue",
    "City": "Stewartsville",
    "State": "NJ",
    "Zipcode": "08886",
    "Phone": "156-298-7482"
  },
  {
    "Store": 353,
    "Address": "604 Mill Pond Court",
    "City": "Landing",
    "State": "NJ",
    "Zipcode": "07850",
    "Phone": "719-223-9593"
  },
  {
    "Store": 354,
    "Address": "428 Bury St",
    "City": "Lafayette",
    "State": "NJ",
    "Zipcode": "07848",
    "Phone": "715-467-9118"
  },
  {
    "Store": 355,
    "Address": "876 Laurel Lane",
    "City": "Adelphia",
    "State": "NJ",
    "Zipcode": "07710",
    "Phone": "913-715-0546"
  },
  {
    "Store": 356,
    "Address": "72 Seacoast Street",
    "City": "Cherry Hill",
    "State": "NJ",
    "Zipcode": "08002",
    "Phone": "673-963-1968"
  },
  {
    "Store": 357,
    "Address": "8098 Mulberry Road",
    "City": "Englishtown",
    "State": "NJ",
    "Zipcode": "07726",
    "Phone": "495-231-1712"
  },
  {
    "Store": 358,
    "Address": "245 Joy Ridge St",
    "City": "Willingboro",
    "State": "NJ",
    "Zipcode": "08046",
    "Phone": "265-953-1315"
  },
  {
    "Store": 359,
    "Address": "8493 Leatherwood Rd",
    "City": "Cape May",
    "State": "NJ",
    "Zipcode": "08204",
    "Phone": "629-430-2372"
  },
  {
    "Store": 360,
    "Address": "9654 Euclid Ave",
    "City": "Leeds Point",
    "State": "NJ",
    "Zipcode": "08220",
    "Phone": "479-689-7809"
  },
  {
    "Store": 361,
    "Address": "85 Timber Lane",
    "City": "Pomona",
    "State": "NJ",
    "Zipcode": "08240",
    "Phone": "625-971-0638"
  },
  {
    "Store": 362,
    "Address": "9324 Peg Shop Lane",
    "City": "Chatham",
    "State": "NJ",
    "Zipcode": "07928",
    "Phone": "160-296-9049"
  },
  {
    "Store": 363,
    "Address": "102 Pilgrim Street",
    "City": "Newark",
    "State": "NJ",
    "Zipcode": "07194",
    "Phone": "736-699-9966"
  },
  {
    "Store": 364,
    "Address": "366 N  College St",
    "City": "Edison",
    "State": "NJ",
    "Zipcode": "08818",
    "Phone": "453-607-6220"
  },
  {
    "Store": 365,
    "Address": "896 Commercial St",
    "City": "Gillette",
    "State": "NJ",
    "Zipcode": "07933",
    "Phone": "840-690-6197"
  },
  {
    "Store": 366,
    "Address": "38 Revolution St",
    "City": "Mount Freedom",
    "State": "NJ",
    "Zipcode": "07970",
    "Phone": "436-855-6810"
  },
  {
    "Store": 367,
    "Address": "706 Forest Court",
    "City": "Trenton",
    "State": "NJ",
    "Zipcode": "08690",
    "Phone": "634-412-3291"
  },
  {
    "Store": 368,
    "Address": "65 Vernon Ave",
    "City": "Toms River",
    "State": "NJ",
    "Zipcode": "08757",
    "Phone": "357-501-1095"
  },
  {
    "Store": 369,
    "Address": "8404 Locust Lane",
    "City": "Atlantic City",
    "State": "NJ",
    "Zipcode": "08404",
    "Phone": "104-633-8659"
  },
  {
    "Store": 370,
    "Address": "8639 North Princess Lane",
    "City": "Lumberton",
    "State": "NJ",
    "Zipcode": "08048",
    "Phone": "391-476-2763"
  },
  {
    "Store": 371,
    "Address": "92 Tarkiln Hill St",
    "City": "Pennsauken",
    "State": "NJ",
    "Zipcode": "08110",
    "Phone": "392-823-3029"
  },
  {
    "Store": 372,
    "Address": "927 East Crescent Lane",
    "City": "Johnsonburg",
    "State": "NJ",
    "Zipcode": "07846",
    "Phone": "695-976-6297"
  },
  {
    "Store": 373,
    "Address": "2 Laurel Court",
    "City": "Pequannock",
    "State": "NJ",
    "Zipcode": "07440",
    "Phone": "830-627-2154"
  },
  {
    "Store": 374,
    "Address": "8373 Clark Rd",
    "City": "Little York",
    "State": "NJ",
    "Zipcode": "08834",
    "Phone": "250-557-3595"
  },
  {
    "Store": 375,
    "Address": "9706 West Beech Ave",
    "City": "Jersey City",
    "State": "NJ",
    "Zipcode": "07306",
    "Phone": "373-378-0793"
  },
  {
    "Store": 376,
    "Address": "13 W",
    "City": "Starlight Avenue Sussex",
    "State": "NJ",
    "Zipcode": "07461",
    "Phone": "968-723-3377"
  },
  {
    "Store": 377,
    "Address": "7404 Rockwell St",
    "City": "Deal",
    "State": "NJ",
    "Zipcode": "07723",
    "Phone": "401-507-3609"
  },
  {
    "Store": 378,
    "Address": "8142 North Dogwood Drive",
    "City": "Cherry Hill",
    "State": "NJ",
    "Zipcode": "08002",
    "Phone": "233-848-7187"
  },
  {
    "Store": 379,
    "Address": "58 Wood Drive",
    "City": "Princeton",
    "State": "NJ",
    "Zipcode": "08540",
    "Phone": "568-659-1772"
  },
  {
    "Store": 380,
    "Address": "9827 Spruce Street",
    "City": "Orange",
    "State": "NJ",
    "Zipcode": "07051",
    "Phone": "152-953-0953"
  },
  {
    "Store": 381,
    "Address": "7203 Lower St",
    "City": "Newark",
    "State": "NJ",
    "Zipcode": "07175",
    "Phone": "209-168-7465"
  },
  {
    "Store": 382,
    "Address": "7 Bury Ave",
    "City": "Paterson",
    "State": "NJ",
    "Zipcode": "07514",
    "Phone": "478-913-6418"
  },
  {
    "Store": 383,
    "Address": "350 Canal St",
    "City": "Atlantic City",
    "State": "NJ",
    "Zipcode": "08405",
    "Phone": "629-456-9087"
  },
  {
    "Store": 384,
    "Address": "8161 Steam St",
    "City": "Marmora",
    "State": "NJ",
    "Zipcode": "08223",
    "Phone": "367-310-4157"
  },
  {
    "Store": 385,
    "Address": "793 Nut Swamp Ave",
    "City": "Branchville",
    "State": "NJ",
    "Zipcode": "07890",
    "Phone": "321-821-4590"
  },
  {
    "Store": 386,
    "Address": "7675 Carson St",
    "City": "Paterson",
    "State": "NJ",
    "Zipcode": "07524",
    "Phone": "444-851-2754"
  },
  {
    "Store": 387,
    "Address": "433 Campus St",
    "City": "Keasbey",
    "State": "NJ",
    "Zipcode": "08832",
    "Phone": "978-388-1704"
  },
  {
    "Store": 388,
    "Address": "434 Arcadia Drive",
    "City": "Spring Lake",
    "State": "NJ",
    "Zipcode": "07762",
    "Phone": "844-932-3090"
  },
  {
    "Store": 389,
    "Address": "84 Grace Street",
    "City": "Chatham",
    "State": "NJ",
    "Zipcode": "07928",
    "Phone": "793-874-4673"
  },
  {
    "Store": 390,
    "Address": "8010 St Paul Rd",
    "City": "Woodbridge",
    "State": "NJ",
    "Zipcode": "07095",
    "Phone": "165-474-7048"
  },
  {
    "Store": 391,
    "Address": "9841 Boston Ave",
    "City": "Totowa",
    "State": "NJ",
    "Zipcode": "07512",
    "Phone": "167-582-2339"
  },
  {
    "Store": 392,
    "Address": "13 West Shadow Brook Dr",
    "City": "Belford",
    "State": "NJ",
    "Zipcode": "07718",
    "Phone": "144-349-1051"
  },
  {
    "Store": 393,
    "Address": "8274 East Lexington Ave",
    "City": "New Lisbon",
    "State": "NJ",
    "Zipcode": "08064",
    "Phone": "834-119-3422"
  },
  {
    "Store": 394,
    "Address": "54 SE",
    "City": "Shipley Street Branchville",
    "State": "NJ",
    "Zipcode": "07826",
    "Phone": "851-177-3292"
  },
  {
    "Store": 395,
    "Address": "8335 West Emerald Circle",
    "City": "Paterson",
    "State": "NJ",
    "Zipcode": "07510",
    "Phone": "373-336-5112"
  },
  {
    "Store": 396,
    "Address": "220 Orchid Road",
    "City": "Rahway",
    "State": "NJ",
    "Zipcode": "07065",
    "Phone": "453-661-9616"
  },
  {
    "Store": 397,
    "Address": "88 Bliss Ave",
    "City": "Dunellen",
    "State": "NJ",
    "Zipcode": "08812",
    "Phone": "574-846-5436"
  },
  {
    "Store": 398,
    "Address": "716 S  Marconi St",
    "City": "Weehawken",
    "State": "NJ",
    "Zipcode": "07086",
    "Phone": "501-407-9498"
  },
  {
    "Store": 399,
    "Address": "45 Strawberry St",
    "City": "Somerville",
    "State": "NJ",
    "Zipcode": "08876",
    "Phone": "180-607-0846"
  },
  {
    "Store": 400,
    "Address": "198 High Point Dr",
    "City": "Berlin",
    "State": "NJ",
    "Zipcode": "08009",
    "Phone": "516-416-6486"
  }
]